*******************************************************************************
Ephemeris / WWW_USER Tue Mar 11 05:31:00 2025 Pasadena, USA      / Horizons    
*******************************************************************************
Target body name: (2018 RY7)                      {source: JPL#20}
Center body name: Earth (399)                     {source: DE441}
Center-site name: Gemini South Obs., Cerro Pachon
*******************************************************************************
Start time      : A.D. 2018-Aug-14 22:26:00.0000 UT      
Stop  time      : A.D. 2018-Aug-15 11:08:00.0000 UT      
Step-size       : 1 minutes
*******************************************************************************
Target pole/equ : undefined
Target radii    : undefined                                                    
Center geodetic : 289.2634, -30.2406227, 2.71233  {E-lon(deg),Lat(deg),Alt(km)}
Center cylindric: 289.2634,5517.21435,-3194.81213 {E-lon(deg),Dxy(km),Dz(km)}
Center pole/equ : ITRF93                          {East-longitude positive}
Center radii    : 6378.137, 6378.137, 6356.752 km {Equator_a, b, pole_c}       
Target primary  : Sun
Vis. interferer : MOON (R_eq= 1737.400) km        {source: DE441}
Rel. light bend : Sun                             {source: DE441}
Rel. lght bnd GM: 1.3271E+11 km^3/s^2                                          
Small-body perts: Yes                             {source: SB441-N16}
Atmos refraction: NO (AIRLESS)
RA format       : HMS
Time format     : CAL 
Calendar mode   : Mixed Julian/Gregorian
RTS-only print  : NO       
EOP file        : eop.250310.p250606                                           
EOP coverage    : DATA-BASED 1962-JAN-20 TO 2025-MAR-10. PREDICTS-> 2025-JUN-05
Units conversion: 1 au= 149597870.700 km, c= 299792.458 km/s, 1 day= 86400.0 s 
Table cut-offs 1: Elevation (-90.0deg=NO ),Airmass (>38.000=NO), Daylight (YES)
Table cut-offs 2: Solar elongation (  0.0,180.0=NO ),Local Hour Angle( 0.0=NO )
Table cut-offs 3: RA/DEC angular rate (     0.0=NO )                           
*******************************************************************************
Initial IAU76/J2000 heliocentric ecliptic osculating elements (au, days, deg.):
  EPOCH=  2458422.5 ! 2018-Oct-31.00 (TDB)         Residual RMS= .22459        
   EC= .1470549687381346   QR= .8667733479166969   TP= 2458516.8896767548      
   OM= 2.838668085760325   W=  136.9006026425241   IN= 13.35135890147074       
  Equivalent ICRF heliocentric cartesian coordinates (au, au/d):
   X= 8.791791513870114E-01  Y= 4.508422091141234E-01  Z= 3.244113040133835E-01
  VX=-1.085418916943652E-02 VY= 1.006005810562689E-02 VZ= 7.673980932675997E-03
Asteroid physical parameters (km, seconds, rotational period in hours):        
   GM= n.a.                RAD= n.a.               ROTPER= n.a.                
   H= 24.4                 G= .150                 B-V= n.a.                   
                           ALBEDO= n.a.            STYP= n.a.                  
*******************************************************************************
 Date__(UT)__HR:MN     R.A._________(ICRF)_________DEC
******************************************************
$$SOE
 2018-Aug-15 10:44 N   02 02 48.661074 -20 49 40.67226
 2018-Aug-15 10:45 N   02 02 48.663624 -20 49 40.19910
 2018-Aug-15 10:46 N   02 02 48.666188 -20 49 39.72576
 2018-Aug-15 10:47 N   02 02 48.668765 -20 49 39.25224
 2018-Aug-15 10:48 N   02 02 48.671356 -20 49 38.77853
 2018-Aug-15 10:49 N   02 02 48.673960 -20 49 38.30464
 2018-Aug-15 10:50 N   02 02 48.676577 -20 49 37.83057
 2018-Aug-15 10:51 N   02 02 48.679208 -20 49 37.35632
 2018-Aug-15 10:52 N   02 02 48.681853 -20 49 36.88189
 2018-Aug-15 10:53 C   02 02 48.684512 -20 49 36.40727
 2018-Aug-15 10:54 C   02 02 48.687186 -20 49 35.93248
 2018-Aug-15 10:55 C   02 02 48.689874 -20 49 35.45751
 2018-Aug-15 10:56 C   02 02 48.692576 -20 49 34.98235
 2018-Aug-15 10:57 C   02 02 48.695293 -20 49 34.50702
 2018-Aug-15 10:58 C   02 02 48.698025 -20 49 34.03151
 2018-Aug-15 10:59 C   02 02 48.700772 -20 49 33.55581
 2018-Aug-15 11:00 C   02 02 48.703534 -20 49 33.07995
 2018-Aug-15 11:01 C   02 02 48.706311 -20 49 32.60390
 2018-Aug-15 11:02 C   02 02 48.709104 -20 49 32.12767
 2018-Aug-15 11:03 C   02 02 48.711912 -20 49 31.65127
 2018-Aug-15 11:04 C   02 02 48.714736 -20 49 31.17469
 2018-Aug-15 11:05 C   02 02 48.717576 -20 49 30.69794
 2018-Aug-15 11:06 C   02 02 48.720432 -20 49 30.22101
 2018-Aug-15 11:07 C   02 02 48.723304 -20 49 29.74390
 2018-Aug-15 11:08 C   02 02 48.726193 -20 49 29.26662
